{
  "type": "FeatureCollection",
  "features": [
    {
      "type": "Feature",
      "properties": {
        "id": 1,
        "kode": "360101",
        "nama": "Sumur",
        "luas": 82.5,
        "populasi": 45231,
        "pusat": [-6.52, 105.42]
      },
      "geometry": {
        "type": "Polygon",
        "coordinates": [[
          [105.38, -6.48],
          [105.42, -6.50],
          [105.46, -6.48],
          [105.48, -6.46],
          [105.44, -6.44],
          [105.40, -6.44],
          [105.38, -6.46],
          [105.38, -6.48]
        ]]
      }
    },
    {
      "type": "Feature",
      "properties": {
        "id": 2,
        "kode": "360102",
        "nama": "Cimanggu",
        "luas": 78.3,
        "populasi": 62341,
        "pusat": [-6.48, 105.48]
      },
      "geometry": {
        "type": "Polygon",
        "coordinates": [[
          [105.44, -6.44],
          [105.48, -6.46],
          [105.52, -6.44],
          [105.54, -6.42],
          [105.50, -6.40],
          [105.46, -6.40],
          [105.44, -6.42],
          [105.44, -6.44]
        ]]
      }
    },
    {
      "type": "Feature",
      "properties": {
        "id": 3,
        "kode": "360103",
        "nama": "Cibaliung",
        "luas": 65.7,
        "populasi": 38290,
        "pusat": [-6.44, 105.52]
      },
      "geometry": {
        "type": "Polygon",
        "coordinates": [[
          [105.48, -6.40],
          [105.52, -6.42],
          [105.56, -6.40],
          [105.58, -6.38],
          [105.54, -6.36],
          [105.50, -6.36],
          [105.48, -6.38],
          [105.48, -6.40]
        ]]
      }
    },
    {
      "type": "Feature",
      "properties": {
        "id": 4,
        "kode": "360104",
        "nama": "Cikeusik",
        "luas": 92.1,
        "populasi": 57213,
        "pusat": [-6.40, 105.56]
      },
      "geometry": {
        "type": "Polygon",
        "coordinates": [[
          [105.52, -6.36],
          [105.56, -6.38],
          [105.60, -6.36],
          [105.62, -6.34],
          [105.58, -6.32],
          [105.54, -6.32],
          [105.52, -6.34],
          [105.52, -6.36]
        ]]
      }
    },
    {
      "type": "Feature",
      "properties": {
        "id": 5,
        "kode": "360105",
        "nama": "Cigeulis",
        "luas": 58.4,
        "populasi": 34215,
        "pusat": [-6.36, 105.60]
      },
      "geometry": {
        "type": "Polygon",
        "coordinates": [[
          [105.56, -6.32],
          [105.60, -6.34],
          [105.64, -6.32],
          [105.66, -6.30],
          [105.62, -6.28],
          [105.58, -6.28],
          [105.56, -6.30],
          [105.56, -6.32]
        ]]
      }
    },
    {
      "type": "Feature",
      "properties": {
        "id": 6,
        "kode": "360106",
        "nama": "Panimbang",
        "luas": 71.8,
        "populasi": 48234,
        "pusat": [-6.32, 105.64]
      },
      "geometry": {
        "type": "Polygon",
        "coordinates": [[
          [105.60, -6.28],
          [105.64, -6.30],
          [105.68, -6.28],
          [105.70, -6.26],
          [105.66, -6.24],
          [105.62, -6.24],
          [105.60, -6.26],
          [105.60, -6.28]
        ]]
      }
    },
    {
      "type": "Feature",
      "properties": {
        "id": 7,
        "kode": "360107",
        "nama": "Sobang",
        "luas": 64.2,
        "populasi": 39387,
        "pusat": [-6.28, 105.68]
      },
      "geometry": {
        "type": "Polygon",
        "coordinates": [[
          [105.64, -6.24],
          [105.68, -6.26],
          [105.72, -6.24],
          [105.74, -6.22],
          [105.70, -6.20],
          [105.66, -6.20],
          [105.64, -6.22],
          [105.64, -6.24]
        ]]
      }
    },
    {
      "type": "Feature",
      "properties": {
        "id": 8,
        "kode": "360108",
        "nama": "Munjul",
        "luas": 52.9,
        "populasi": 32145,
        "pusat": [-6.24, 105.72]
      },
      "geometry": {
        "type": "Polygon",
        "coordinates": [[
          [105.68, -6.20],
          [105.72, -6.22],
          [105.76, -6.20],
          [105.78, -6.18],
          [105.74, -6.16],
          [105.70, -6.16],
          [105.68, -6.18],
          [105.68, -6.20]
        ]]
      }
    },
    {
      "type": "Feature",
      "properties": {
        "id": 9,
        "kode": "360109",
        "nama": "Angsana",
        "luas": 48.3,
        "populasi": 28234,
        "pusat": [-6.20, 105.76]
      },
      "geometry": {
        "type": "Polygon",
        "coordinates": [[
          [105.72, -6.16],
          [105.76, -6.18],
          [105.80, -6.16],
          [105.82, -6.14],
          [105.78, -6.12],
          [105.74, -6.12],
          [105.72, -6.14],
          [105.72, -6.16]
        ]]
      }
    },
    {
      "type": "Feature",
      "properties": {
        "id": 10,
        "kode": "360110",
        "nama": "Sindangresmi",
        "luas": 55.1,
        "populasi": 31234,
        "pusat": [-6.16, 105.80]
      },
      "geometry": {
        "type": "Polygon",
        "coordinates": [[
          [105.76, -6.12],
          [105.80, -6.14],
          [105.84, -6.12],
          [105.86, -6.10],
          [105.82, -6.08],
          [105.78, -6.08],
          [105.76, -6.10],
          [105.76, -6.12]
        ]]
      }
    },
    {
      "type": "Feature",
      "properties": {
        "id": 11,
        "kode": "360111",
        "nama": "Saketi",
        "luas": 68.7,
        "populasi": 45234,
        "pusat": [-6.12, 105.84]
      },
      "geometry": {
        "type": "Polygon",
        "coordinates": [[
          [105.80, -6.08],
          [105.84, -6.10],
          [105.88, -6.08],
          [105.90, -6.06],
          [105.86, -6.04],
          [105.82, -6.04],
          [105.80, -6.06],
          [105.80, -6.08]
        ]]
      }
    },
    {
      "type": "Feature",
      "properties": {
        "id": 12,
        "kode": "360112",
        "nama": "Bojong",
        "luas": 75.4,
        "populasi": 56234,
        "pusat": [-6.08, 105.88]
      },
      "geometry": {
        "type": "Polygon",
        "coordinates": [[
          [105.84, -6.04],
          [105.88, -6.06],
          [105.92, -6.04],
          [105.94, -6.02],
          [105.90, -6.00],
          [105.86, -6.00],
          [105.84, -6.02],
          [105.84, -6.04]
        ]]
      }
    },
    {
      "type": "Feature",
      "properties": {
        "id": 13,
        "kode": "360113",
        "nama": "Jiput",
        "luas": 56.8,
        "populasi": 33234,
        "pusat": [-6.04, 105.92]
      },
      "geometry": {
        "type": "Polygon",
        "coordinates": [[
          [105.88, -6.00],
          [105.92, -6.02],
          [105.96, -6.00],
          [105.98, -5.98],
          [105.94, -5.96],
          [105.90, -5.96],
          [105.88, -5.98],
          [105.88, -6.00]
        ]]
      }
    },
    {
      "type": "Feature",
      "properties": {
        "id": 14,
        "kode": "360114",
        "nama": "Cikadu",
        "luas": 49.2,
        "populasi": 28234,
        "pusat": [-6.00, 105.96]
      },
      "geometry": {
        "type": "Polygon",
        "coordinates": [[
          [105.92, -5.96],
          [105.96, -5.98],
          [106.00, -5.96],
          [106.02, -5.94],
          [105.98, -5.92],
          [105.94, -5.92],
          [105.92, -5.94],
          [105.92, -5.96]
        ]]
      }
    },
    {
      "type": "Feature",
      "properties": {
        "id": 15,
        "kode": "360115",
        "nama": "Mandalawangi",
        "luas": 72.3,
        "populasi": 48234,
        "pusat": [-5.96, 106.00]
      },
      "geometry": {
        "type": "Polygon",
        "coordinates": [[
          [105.96, -5.92],
          [106.00, -5.94],
          [106.04, -5.92],
          [106.06, -5.90],
          [106.02, -5.88],
          [105.98, -5.88],
          [105.96, -5.90],
          [105.96, -5.92]
        ]]
      }
    },
    {
      "type": "Feature",
      "properties": {
        "id": 16,
        "kode": "360116",
        "nama": "Cadasari",
        "luas": 74.6,
        "populasi": 52234,
        "pusat": [-5.92, 106.04]
      },
      "geometry": {
        "type": "Polygon",
        "coordinates": [[
          [106.00, -5.88],
          [106.04, -5.90],
          [106.08, -5.88],
          [106.10, -5.86],
          [106.06, -5.84],
          [106.02, -5.84],
          [106.00, -5.86],
          [106.00, -5.88]
        ]]
      }
    },
    {
      "type": "Feature",
      "properties": {
        "id": 17,
        "kode": "360117",
        "nama": "Pulosari",
        "luas": 46.1,
        "populasi": 27234,
        "pusat": [-5.88, 106.08]
      },
      "geometry": {
        "type": "Polygon",
        "coordinates": [[
          [106.04, -5.84],
          [106.08, -5.86],
          [106.12, -5.84],
          [106.14, -5.82],
          [106.10, -5.80],
          [106.06, -5.80],
          [106.04, -5.82],
          [106.04, -5.84]
        ]]
      }
    },
    {
      "type": "Feature",
      "properties": {
        "id": 18,
        "kode": "360118",
        "nama": "Kaduhejo",
        "luas": 59.5,
        "populasi": 36234,
        "pusat": [-5.84, 106.12]
      },
      "geometry": {
        "type": "Polygon",
        "coordinates": [[
          [106.08, -5.80],
          [106.12, -5.82],
          [106.16, -5.80],
          [106.18, -5.78],
          [106.14, -5.76],
          [106.10, -5.76],
          [106.08, -5.78],
          [106.08, -5.80]
        ]]
      }
    },
    {
      "type": "Feature",
      "properties": {
        "id": 19,
        "kode": "360119",
        "nama": "Cikeudal",
        "luas": 66.2,
        "populasi": 42234,
        "pusat": [-5.80, 106.16]
      },
      "geometry": {
        "type": "Polygon",
        "coordinates": [[
          [106.12, -5.76],
          [106.16, -5.78],
          [106.20, -5.76],
          [106.22, -5.74],
          [106.18, -5.72],
          [106.14, -5.72],
          [106.12, -5.74],
          [106.12, -5.76]
        ]]
      }
    },
    {
      "type": "Feature",
      "properties": {
        "id": 20,
        "kode": "360120",
        "nama": "Cipeucang",
        "luas": 54.3,
        "populasi": 31234,
        "pusat": [-5.76, 106.20]
      },
      "geometry": {
        "type": "Polygon",
        "coordinates": [[
          [106.16, -5.72],
          [106.20, -5.74],
          [106.24, -5.72],
          [106.26, -5.70],
          [106.22, -5.68],
          [106.18, -5.68],
          [106.16, -5.70],
          [106.16, -5.72]
        ]]
      }
    },
    {
      "type": "Feature",
      "properties": {
        "id": 21,
        "kode": "360121",
        "nama": "Mekarjaya",
        "luas": 47.8,
        "populasi": 28234,
        "pusat": [-5.72, 106.24]
      },
      "geometry": {
        "type": "Polygon",
        "coordinates": [[
          [106.20, -5.68],
          [106.24, -5.70],
          [106.28, -5.68],
          [106.30, -5.66],
          [106.26, -5.64],
          [106.22, -5.64],
          [106.20, -5.66],
          [106.20, -5.68]
        ]]
      }
    },
    {
      "type": "Feature",
      "properties": {
        "id": 22,
        "kode": "360122",
        "nama": "Menes",
        "luas": 76.9,
        "populasi": 54234,
        "pusat": [-5.68, 106.28]
      },
      "geometry": {
        "type": "Polygon",
        "coordinates": [[
          [106.24, -5.64],
          [106.28, -5.66],
          [106.32, -5.64],
          [106.34, -5.62],
          [106.30, -5.60],
          [106.26, -5.60],
          [106.24, -5.62],
          [106.24, -5.64]
        ]]
      }
    },
    {
      "type": "Feature",
      "properties": {
        "id": 23,
        "kode": "360123",
        "nama": "Koroncong",
        "luas": 42.5,
        "populasi": 25234,
        "pusat": [-5.64, 106.32]
      },
      "geometry": {
        "type": "Polygon",
        "coordinates": [[
          [106.28, -5.60],
          [106.32, -5.62],
          [106.36, -5.60],
          [106.38, -5.58],
          [106.34, -5.56],
          [106.30, -5.56],
          [106.28, -5.58],
          [106.28, -5.60]
        ]]
      }
    },
    {
      "type": "Feature",
      "properties": {
        "id": 24,
        "kode": "360124",
        "nama": "Picung",
        "luas": 62.1,
        "populasi": 38234,
        "pusat": [-5.60, 106.36]
      },
      "geometry": {
        "type": "Polygon",
        "coordinates": [[
          [106.32, -5.56],
          [106.36, -5.58],
          [106.40, -5.56],
          [106.42, -5.54],
          [106.38, -5.52],
          [106.34, -5.52],
          [106.32, -5.54],
          [106.32, -5.56]
        ]]
      }
    },
    {
      "type": "Feature",
      "properties": {
        "id": 25,
        "kode": "360125",
        "nama": "Cibitu",
        "luas": 38.7,
        "populasi": 22234,
        "pusat": [-5.56, 106.40]
      },
      "geometry": {
        "type": "Polygon",
        "coordinates": [[
          [106.36, -5.52],
          [106.40, -5.54],
          [106.44, -5.52],
          [106.46, -5.50],
          [106.42, -5.48],
          [106.38, -5.48],
          [106.36, -5.50],
          [106.36, -5.52]
        ]]
      }
    },
    {
      "type": "Feature",
      "properties": {
        "id": 26,
        "kode": "360126",
        "nama": "Garum",
        "luas": 70.5,
        "populasi": 49234,
        "pusat": [-5.52, 106.44]
      },
      "geometry": {
        "type": "Polygon",
        "coordinates": [[
          [106.40, -5.48],
          [106.44, -5.50],
          [106.48, -5.48],
          [106.50, -5.46],
          [106.46, -5.44],
          [106.42, -5.44],
          [106.40, -5.46],
          [106.40, -5.48]
        ]]
      }
    },
    {
      "type": "Feature",
      "properties": {
        "id": 27,
        "kode": "360127",
        "nama": "Caret",
        "luas": 55.8,
        "populasi": 32234,
        "pusat": [-5.48, 106.48]
      },
      "geometry": {
        "type": "Polygon",
        "coordinates": [[
          [106.44, -5.44],
          [106.48, -5.46],
          [106.52, -5.44],
          [106.54, -5.42],
          [106.50, -5.40],
          [106.46, -5.40],
          [106.44, -5.42],
          [106.44, -5.44]
        ]]
      }
    },
    {
      "type": "Feature",
      "properties": {
        "id": 28,
        "kode": "360128",
        "nama": "Ciawi",
        "luas": 68.3,
        "populasi": 45234,
        "pusat": [-5.44, 106.52]
      },
      "geometry": {
        "type": "Polygon",
        "coordinates": [[
          [106.48, -5.40],
          [106.52, -5.42],
          [106.56, -5.40],
          [106.58, -5.38],
          [106.54, -5.36],
          [106.50, -5.36],
          [106.48, -5.38],
          [106.48, -5.40]
        ]]
      }
    },
    {
      "type": "Feature",
      "properties": {
        "id": 29,
        "kode": "360129",
        "nama": "Cimanuk",
        "luas": 58.2,
        "populasi": 35234,
        "pusat": [-5.40, 106.56]
      },
      "geometry": {
        "type": "Polygon",
        "coordinates": [[
          [106.52, -5.36],
          [106.56, -5.38],
          [106.60, -5.36],
          [106.62, -5.34],
          [106.58, -5.32],
          [106.54, -5.32],
          [106.52, -5.34],
          [106.52, -5.36]
        ]]
      }
    },
    {
      "type": "Feature",
      "properties": {
        "id": 30,
        "kode": "360130",
        "nama": "Carita",
        "luas": 63.4,
        "populasi": 39234,
        "pusat": [-5.36, 106.60]
      },
      "geometry": {
        "type": "Polygon",
        "coordinates": [[
          [106.56, -5.32],
          [106.60, -5.34],
          [106.64, -5.32],
          [106.66, -5.30],
          [106.62, -5.28],
          [106.58, -5.28],
          [106.56, -5.30],
          [106.56, -5.32]
        ]]
      }
    },
    {
      "type": "Feature",
      "properties": {
        "id": 31,
        "kode": "360131",
        "nama": "Labuan",
        "luas": 81.6,
        "populasi": 62234,
        "pusat": [-5.32, 106.64]
      },
      "geometry": {
        "type": "Polygon",
        "coordinates": [[
          [106.60, -5.28],
          [106.64, -5.30],
          [106.68, -5.28],
          [106.70, -5.26],
          [106.66, -5.24],
          [106.62, -5.24],
          [106.60, -5.26],
          [106.60, -5.28]
        ]]
      }
    },
    {
      "type": "Feature",
      "properties": {
        "id": 32,
        "kode": "360132",
        "nama": "Pandeglang",
        "luas": 92.8,
        "populasi": 78234,
        "pusat": [-5.28, 106.68]
      },
      "geometry": {
        "type": "Polygon",
        "coordinates": [[
          [106.64, -5.24],
          [106.68, -5.26],
          [106.72, -5.24],
          [106.74, -5.22],
          [106.70, -5.20],
          [106.66, -5.20],
          [106.64, -5.22],
          [106.64, -5.24]
        ]]
      }
    },
    {
      "type": "Feature",
      "properties": {
        "id": 33,
        "kode": "360133",
        "nama": "Patia",
        "luas": 53.7,
        "populasi": 31234,
        "pusat": [-5.24, 106.72]
      },
      "geometry": {
        "type": "Polygon",
        "coordinates": [[
          [106.68, -5.20],
          [106.72, -5.22],
          [106.76, -5.20],
          [106.78, -5.18],
          [106.74, -5.16],
          [106.70, -5.16],
          [106.68, -5.18],
          [106.68, -5.20]
        ]]
      }
    },
    {
      "type": "Feature",
      "properties": {
        "id": 34,
        "kode": "360134",
        "nama": "Karang Tanjung",
        "luas": 48.9,
        "populasi": 28234,
        "pusat": [-5.20, 106.76]
      },
      "geometry": {
        "type": "Polygon",
        "coordinates": [[
          [106.72, -5.16],
          [106.76, -5.18],
          [106.80, -5.16],
          [106.82, -5.14],
          [106.78, -5.12],
          [106.74, -5.12],
          [106.72, -5.14],
          [106.72, -5.16]
        ]]
      }
    },
    {
      "type": "Feature",
      "properties": {
        "id": 35,
        "kode": "360135",
        "nama": "Cikeupa",
        "luas": 59.1,
        "populasi": 35234,
        "pusat": [-5.16, 106.80]
      },
      "geometry": {
        "type": "Polygon",
        "coordinates": [[
          [106.76, -5.12],
          [106.80, -5.14],
          [106.84, -5.12],
          [106.86, -5.10],
          [106.82, -5.08],
          [106.78, -5.08],
          [106.76, -5.10],
          [106.76, -5.12]
        ]]
      }
    }
  ]
}
